{
  "type": "FeatureCollection",
  "features": [
    {
      "type": "Feature",
      "properties": {
        "norad_id": 36533,
        "name": "COSMOS 2251 DEB",
        "group": "cosmos-2251-debris",
        "lat": 20.370920529566767,
        "lon": 133.9633649140687,
        "alt_km": 733.8500857702156,
        "timestamp": "2025-12-05T19:30:25.964408+00:00",
        "meta_object_name": "COSMOS 2251 DEB",
        "meta_object_id": "1993-036BCT",
        "meta_epoch": "2025-12-04T03:39:46.792224",
        "meta_mean_motion": 14.49765129,
        "meta_eccentricity": 0.00490493,
        "meta_inclination": 74.0108,
        "meta_ra_of_asc_node": 130.9716,
        "meta_arg_of_pericenter": 281.613,
        "meta_mean_anomaly": 77.9527,
        "meta_ephemeris_type": 0,
        "meta_classification_type": "U",
        "meta_norad_cat_id": 36533,
        "meta_element_set_no": 999,
        "meta_rev_at_epoch": 84360,
        "meta_bstar": 0.00080793956,
        "meta_mean_motion_dot": 3.134e-05,
        "meta_mean_motion_ddot": 0,
        "tle_line1": "1 36533U 93036BCT 25338.15262491  .00003134  00000+0  80794-3 0  9993",
        "tle_line2": "2 36533  74.0108 130.9716 0049049 281.6130  77.9527 14.49765129843602"
      },
      "geometry": {
        "type": "Point",
        "coordinates": [
          133.9633649140687,
          20.370920529566767
        ]
      }
    },
    {
      "type": "Feature",
      "properties": {
        "norad_id": 36539,
        "name": "COSMOS 2251 DEB",
        "group": "cosmos-2251-debris",
        "lat": -13.179114989736853,
        "lon": 64.54724651317684,
        "alt_km": 712.8929774728322,
        "timestamp": "2025-12-05T19:30:25.964419+00:00",
        "meta_object_name": "COSMOS 2251 DEB",
        "meta_object_id": "1993-036BCZ",
        "meta_epoch": "2025-12-05T06:24:25.454592",
        "meta_mean_motion": 14.5921943,
        "meta_eccentricity": 0.00276445,
        "meta_inclination": 74.0247,
        "meta_ra_of_asc_node": 69.4341,
        "meta_arg_of_pericenter": 215.6266,
        "meta_mean_anomaly": 144.3055,
        "meta_ephemeris_type": 0,
        "meta_classification_type": "U",
        "meta_norad_cat_id": 36539,
        "meta_element_set_no": 999,
        "meta_rev_at_epoch": 83838,
        "meta_bstar": 0.0016417203,
        "meta_mean_motion_dot": 7.766e-05,
        "meta_mean_motion_ddot": 0,
        "tle_line1": "1 36539U 93036BCZ 25339.26696128  .00007766  00000+0  16417-2 0  9995",
        "tle_line2": "2 36539  74.0247  69.4341 0027644 215.6266 144.3055 14.59219430838380"
      },
      "geometry": {
        "type": "Point",
        "coordinates": [
          64.54724651317684,
          -13.179114989736853
        ]
      }
    },
    {
      "type": "Feature",
      "properties": {
        "norad_id": 36540,
        "name": "COSMOS 2251 DEB",
        "group": "cosmos-2251-debris",
        "lat": -29.792087513962397,
        "lon": -175.72987072331566,
        "alt_km": 699.3457331439986,
        "timestamp": "2025-12-05T19:30:25.964430+00:00",
        "meta_object_name": "COSMOS 2251 DEB",
        "meta_object_id": "1993-036BDA",
        "meta_epoch": "2025-12-04T14:00:55.465056",
        "meta_mean_motion": 14.58365196,
        "meta_eccentricity": 0.0015372,
        "meta_inclination": 74.0288,
        "meta_ra_of_asc_node": 196.046,
        "meta_arg_of_pericenter": 266.6473,
        "meta_mean_anomaly": 93.2933,
        "meta_ephemeris_type": 0,
        "meta_classification_type": "U",
        "meta_norad_cat_id": 36540,
        "meta_element_set_no": 999,
        "meta_rev_at_epoch": 85891,
        "meta_bstar": 0.002331,
        "meta_mean_motion_dot": 0.000108,
        "meta_mean_motion_ddot": 0,
        "tle_line1": "1 36540U 93036BDA 25338.58397529  .00010800  00000+0  23310-2 0  9997",
        "tle_line2": "2 36540  74.0288 196.0460 0015372 266.6473  93.2933 14.58365196858915"
      },
      "geometry": {
        "type": "Point",
        "coordinates": [
          -175.72987072331566,
          -29.792087513962397
        ]
      }
    },
    {
      "type": "Feature",
      "properties": {
        "norad_id": 36550,
        "name": "COSMOS 2251 DEB",
        "group": "cosmos-2251-debris",
        "lat": -44.594636638681926,
        "lon": 41.6563235742471,
        "alt_km": 758.7540731653735,
        "timestamp": "2025-12-05T19:30:25.964440+00:00",
        "meta_object_name": "COSMOS 2251 DEB",
        "meta_object_id": "1993-036BDL",
        "meta_epoch": "2025-12-02T08:00:24.910560",
        "meta_mean_motion": 14.27149643,
        "meta_eccentricity": 0.00787603,
        "meta_inclination": 74.0451,
        "meta_ra_of_asc_node": 211.5637,
        "meta_arg_of_pericenter": 264.4889,
        "meta_mean_anomaly": 94.7272,
        "meta_ephemeris_type": 0,
        "meta_classification_type": "U",
        "meta_norad_cat_id": 36550,
        "meta_element_set_no": 999,
        "meta_rev_at_epoch": 84447,
        "meta_bstar": 0.00078484278,
        "meta_mean_motion_dot": 1.953e-05,
        "meta_mean_motion_ddot": 0,
        "tle_line1": "1 36550U 93036BDL 25336.33362165  .00001953  00000+0  78484-3 0  9999",
        "tle_line2": "2 36550  74.0451 211.5637 0078760 264.4889  94.7272 14.27149643844475"
      },
      "geometry": {
        "type": "Point",
        "coordinates": [
          41.6563235742471,
          -44.594636638681926
        ]
      }
    },
    {
      "type": "Feature",
      "properties": {
        "norad_id": 36551,
        "name": "COSMOS 2251 DEB",
        "group": "cosmos-2251-debris",
        "lat": -27.65447026214033,
        "lon": -142.31721923412186,
        "alt_km": 588.2077928874996,
        "timestamp": "2025-12-05T19:30:25.964451+00:00",
        "meta_object_name": "COSMOS 2251 DEB",
        "meta_object_id": "1993-036BDM",
        "meta_epoch": "2025-12-01T04:16:57.552096",
        "meta_mean_motion": 15.01965558,
        "meta_eccentricity": 0.00505004,
        "meta_inclination": 73.8879,
        "meta_ra_of_asc_node": 38.501,
        "meta_arg_of_pericenter": 349.5182,
        "meta_mean_anomaly": 10.4947,
        "meta_ephemeris_type": 0,
        "meta_classification_type": "U",
        "meta_norad_cat_id": 36551,
        "meta_element_set_no": 999,
        "meta_rev_at_epoch": 66758,
        "meta_bstar": 0.0014137691,
        "meta_mean_motion_dot": 0.00019039,
        "meta_mean_motion_ddot": 0,
        "tle_line1": "1 36551U 93036BDM 25335.17844389  .00019039  00000+0  14138-2 0  9993",
        "tle_line2": "2 36551  73.8879  38.5010 0050500 349.5182  10.4947 15.01965558667585"
      },
      "geometry": {
        "type": "Point",
        "coordinates": [
          -142.31721923412186,
          -27.65447026214033
        ]
      }
    },
    {
      "type": "Feature",
      "properties": {
        "norad_id": 36557,
        "name": "COSMOS 2251 DEB",
        "group": "cosmos-2251-debris",
        "lat": 70.91221846264206,
        "lon": -163.96627377568134,
        "alt_km": 642.3380374863036,
        "timestamp": "2025-12-05T19:30:25.964461+00:00",
        "meta_object_name": "COSMOS 2251 DEB",
        "meta_object_id": "1993-036BDT",
        "meta_epoch": "2025-11-29T20:08:28.959648",
        "meta_mean_motion": 14.77361907,
        "meta_eccentricity": 0.00205231,
        "meta_inclination": 73.9794,
        "meta_ra_of_asc_node": 151.6562,
        "meta_arg_of_pericenter": 302.0455,
        "meta_mean_anomaly": 57.8725,
        "meta_ephemeris_type": 0,
        "meta_classification_type": "U",
        "meta_norad_cat_id": 36557,
        "meta_element_set_no": 999,
        "meta_rev_at_epoch": 33706,
        "meta_bstar": 0.0024129009,
        "meta_mean_motion_dot": 0.00017224,
        "meta_mean_motion_ddot": 0,
        "tle_line1": "1 36557U 93036BDT 25333.83922407  .00017224  00000+0  24129-2 0  9993",
        "tle_line2": "2 36557  73.9794 151.6562 0020523 302.0455  57.8725 14.77361907337062"
      },
      "geometry": {
        "type": "Point",
        "coordinates": [
          -163.96627377568134,
          70.91221846264206
        ]
      }
    },
    {
      "type": "Feature",
      "properties": {
        "norad_id": 36558,
        "name": "COSMOS 2251 DEB",
        "group": "cosmos-2251-debris",
        "lat": -42.06030135610493,
        "lon": 2.6202796109029296,
        "alt_km": 706.7343570184385,
        "timestamp": "2025-12-05T19:30:25.964471+00:00",
        "meta_object_name": "COSMOS 2251 DEB",
        "meta_object_id": "1993-036BDU",
        "meta_epoch": "2025-12-04T06:10:59.117952",
        "meta_mean_motion": 14.55263226,
        "meta_eccentricity": 0.0013164,
        "meta_inclination": 74.0418,
        "meta_ra_of_asc_node": 170.6004,
        "meta_arg_of_pericenter": 258.9437,
        "meta_mean_anomaly": 101.0246,
        "meta_ephemeris_type": 0,
        "meta_classification_type": "U",
        "meta_norad_cat_id": 36558,
        "meta_element_set_no": 999,
        "meta_rev_at_epoch": 85145,
        "meta_bstar": 0.0017175,
        "meta_mean_motion_dot": 7.427e-05,
        "meta_mean_motion_ddot": 0,
        "tle_line1": "1 36558U 93036BDU 25338.25762868  .00007427  00000+0  17175-2 0  9995",
        "tle_line2": "2 36558  74.0418 170.6004 0013164 258.9437 101.0246 14.55263226851457"
      },
      "geometry": {
        "type": "Point",
        "coordinates": [
          2.6202796109029296,
          -42.06030135610493
        ]
      }
    }
  ]
}